GOMX-4A                 
1 43197U 18015F   19076.52719075  .00000460  00000-0  21935-4 0  9992
2 43197  97.3754 205.4945 0017302 277.8788 149.6758 15.23930996 62162
1KUNS-PF                
1 43466U 98067NP  19076.46379390  .00025717  00000-0  28646-3 0  9998
2 43466  51.6379  86.4469 0001676  66.6838 293.4333 15.62660316 48320
UBAKUSAT                
1 43467U 98067NQ  19076.43723554  .00017250  00000-0  21055-3 0  9991
2 43467  51.6375  88.5146 0003409  70.1726 289.9634 15.60558358 48306
BATSU-CS1 (IRAZU)       
1 43468U 98067NR  19076.20200429  .00035547  00000-0  36907-3 0  9999
2 43468  51.6373  86.1918 0001803  62.6683 297.4495 15.64281616148292
CUBERRT                 
1 43546U 98067NU  19075.51273095  .00011848  00000-0  14390-3 0  9998
2 43546  51.6379  95.0823 0005424 125.1835 234.9667 15.61052221 38263
TEMPEST-D               
1 43547U 98067NV  19075.65778494  .00003935  00000-0  60601-4 0  9992
2 43547  51.6383  97.5469 0006071 126.7957 233.3592 15.56815294 37926
RAINCUBE                
1 43548U 98067NW  19076.34692193  .00017340  00000-0  22336-3 0  9998
2 43548  51.6371  92.3981 0005676 133.7089 226.4375 15.59120713 38505
HALOSAT                 
1 43549U 98067NX  19075.45040415  .00011116  00000-0  14589-3 0  9990
2 43549  51.6375  96.9143 0005485 134.2628 225.8815 15.59069909 37929
ENDUROSAT ONE           
1 43551U 98067NZ  19076.50998732  .00020958  00000-0  25850-3 0  9991
2 43551  51.6380  90.4938 0005723 144.2040 215.9338 15.60124996 38519
EQUISAT                 
1 43552U 98067PA  19076.11128373  .00013109  00000-0  16889-3 0  9997
2 43552  51.6389  93.0886 0006127 143.9294 216.2113 15.59374448 38406
AEROCUBE 12A            
1 43556U 18046C   19076.55286385  .00000750  00000-0  39460-4 0  9995
2 43556  51.6421 143.3280 0009010  96.5313 263.6693 15.28397997 37311
AEROCUBE 12B            
1 43557U 18046D   19075.57880268  .00000390  00000-0  26712-4 0  9993
2 43557  51.6427 148.0729 0009031  93.4854 266.7158 15.28307814 37114
UITMSAT-1               
1 43589U 98067PD  19076.43359274  .00019298  00000-0  24672-3 0  9992
2 43589  51.6365  92.2180 0005214 151.6116 208.5162 15.59238735 34180
MAYA-1                  
1 43590U 98067PE  19076.23767563  .00019105  00000-0  24416-3 0  9999
2 43590  51.6368  93.1618 0005394 152.1860 207.9422 15.59254876 34087
BHUTAN-1                
1 43591U 98067PF  19076.29566162  .00019222  00000-0  24511-3 0  9994
2 43591  51.6381  92.8068 0005450 152.4675 207.6607 15.59309532 34091
SIRIUSSAT-1             
1 43595U 98067PG  19076.49545637  .00017853  00000-0  23375-3 0  9999
2 43595  51.6366  92.6312 0004053 104.8862 255.2579 15.58669737 33298
SIRIUSSAT-2             
1 43596U 98067PH  19076.19555524  .00018556  00000-0  24419-3 0  9994
2 43596  51.6376  94.4007 0004616 106.4330 253.7170 15.58501503 33245
TANUSHA-3               
1 43597U 98067PJ  19076.52254727  .00021885  00000-0  27713-3 0  9992
2 43597  51.6365  92.0419 0003809 115.9372 244.2014 15.59407742 33309
SURFSAT                 
1 43614U 18070B   19076.18767305  .00003252  00000-0  89648-4 0  9995
2 43614  93.0355 325.0690 0014241 313.9969  46.0109 15.37086960 28041
CP7 (DAVE)              
1 43615U 18070C   19076.18950642  .00003058  00000-0  84461-4 0  9996
2 43615  93.0359 325.0706 0014270 313.5597  46.4470 15.37037756 28043
ELFIN-B                 
1 43616U 18070D   19076.16369720  .00003772  00000-0  10271-3 0  9996
2 43616  93.0320 324.9920 0015284 317.1070  42.8991 15.37446677 28044
ELFIN-A                 
1 43617U 18070E   19076.41997550  .00004270  00000-0  11616-3 0  9991
2 43617  93.0372 325.2406 0014164 312.8659  47.1404 15.37484851 28083
CUBEBEL-1 (BSUSAT-1)    
1 43666U 18083E   19076.44892453  .00001093  00000-0  58025-4 0  9994
2 43666  97.5298 101.5316 0016128 146.5858 319.3592 15.17364067 21149
DEBRISSAT-2             
1 43680U 98067PR  19076.52812971  .00018284  00000-0  23241-3 0  9997
2 43680  51.6370  92.0919 0003276 119.3160 240.8163 15.59440330 42042
CICERO 10               
1 43690U 18088A   19075.91892068  .00001242  00000-0  56596-4 0  9996
2 43690  85.0410  20.2250 0014812 182.9277 177.1880 15.19460065 19116
IRVINE01                
1 43693U 18088D   19075.87439370  .00002350  00000-0  10393-3 0  9992
2 43693  85.0383  20.0443 0018733 170.2187 189.9423 15.20947035 19108
PROXIMA I               
1 43694U 18088E   19076.10338739  .00001054  00000-0  45225-4 0  9990
2 43694  85.0354  19.7804 0020101 161.6364 198.5608 15.21204421 19147
PROXIMA II              
1 43696U 18088G   19075.90553094  .00001022  00000-0  43765-4 0  9994
2 43696  85.0354  19.9116 0020101 162.3067 197.8879 15.21209471 19114
FACSAT-1                
1 43721U 18096C   19076.49924169  .00001417  00000-0  57878-4 0  9990
2 43721  97.4691 146.4907 0016748 300.9495  59.0097 15.25982693 16526
CENTAURI-2              
1 43722U 18096D   19076.49137418  .00002333  00000-0  92946-4 0  9997
2 43722  97.4690 146.5013 0016819 301.6212  58.3385 15.26139214 16514
SIRION PATHFINDER-2     
1 43759U 18099B   19076.49042141  .00000434  00000-0  44850-4 0  9999
2 43759  97.7537 149.5811 0012744 271.5540  88.4220 14.95083624 15494
CORVUS-BC 4             
1 43767U 18099K   19076.19405210  .00000091  00000-0  13755-4 0  9994
2 43767  97.7521 149.1792 0010364 275.7634  84.2404 14.94525591 15453
SHIELDS 1               
1 43850U 18104B   19075.63452323  .00000041  00000-0  00000-0 0  9999
2 43850  85.0286 118.6228 0012879 323.5255  36.5228 15.20988595 13722
STF-1                   
1 43852U 18104D   19075.60698722  .00000041  00000-0  00000-0 0  9993
2 43852  85.0337 118.7564 0014166 340.7127  19.3638 15.20394122 13715
LUME 1                  
1 43908U 18111AJ  19076.51273571  .00001295  00000-0  55907-4 0  9997
2 43908  97.2965 344.2795 0020814 324.3249  35.6596 15.24120928 12258
AOBA VELOX-IV           
1 43940U 19003J   19076.48258285  .00001909  00000-0  82361-4 0  9991
2 43940  97.2876 137.1170 0025977  44.3853  12.0797 15.23437689  8897
CATSAT-2                
1 44029U 98067PV  19075.62230238  .00008449  00000-0  13269-3 0  9996
2 44029  51.6391 101.0610 0004801 148.7131 211.4146 15.54551527  6930
DELPHINI                
1 44030U 98067PW  19076.45747091  .00015688  00000-0  23950-3 0  9991
2 44030  51.6386  96.8876 0004454 147.8960 212.2303 15.54608914  7034
UNITE                   
1 44031U 98067PX  19076.45975879  .00009683  00000-0  15189-3 0  9992
2 44031  51.6388  96.9028 0003315 142.0867 218.0357 15.54389864  7038
TECHEDSAT 8             
1 44032U 98067PY  19076.44411699  .00031643  00000-0  46006-3 0  9990
2 44032  51.6385  96.7995 0003105 130.5434 229.5828 15.55477749  7015
CATSAT-1                
1 44033U 98067PZ  19076.45784083  .00012494  00000-0  19255-3 0  9991
2 44033  51.6391  96.8913 0004675 151.5250 208.5997 15.54569558  6973
